STARLINK-31054          
1 58619U 23203B   26068.06150238  .00000057  00000+0  11595-4 0  9992
2 58619  43.0061  70.7851 0001116 265.1004  94.9720 15.27568374123465
TEVEL2-3                
1 63218U 25052J   26068.64540225  .00020365  00000+0  69446-3 0  9991
2 63218  97.3994 324.7775 0004761 105.7353 254.4413 15.30377031 54855
